NORAD_CAT_ID,OBJECT_NAME,OBJECT_TYPE,EPOCH,MEAN_MOTION,ECCENTRICITY,INCLINATION,RA_OF_ASC_NODE,ARG_OF_PERICENTER,MEAN_ANOMALY,BSTAR,MEAN_MOTION_DOT,MEAN_MOTION_DDOT,TLE_LINE0,TLE_LINE1,TLE_LINE2,SEMIMAJOR_AXIS,PERIOD,APOGEE,PERIGEE,DECAYED
56779.0,STARLINK-6231,PAYLOAD,2023-10-13 13:46:30,15.6991538,0.0003354,69.9988,32.895,276.9655,83.1159,1.69e-05,1.819e-05,0.0,0 STARLINK-6231,1 56779U 23078N   23286.57396698  .00001819  00000-0  16900-4 0  9997,2 56779  69.9988  32.8950 0003354 276.9655  83.1159 15.69915380 21284,6737.276,91.725,361.401,356.881,0.0
56779.0,STARLINK-6231,PAYLOAD,2023-10-13 16:49:59,15.69936518,0.0003579,69.9984,32.5362,271.3288,88.7498,2.3897e-05,2.663e-05,0.0,0 STARLINK-6231,1 56779U 23078N   23286.70138559  .00002663  00000-0  23897-4 0  9993,2 56779  69.9984  32.5362 0003579 271.3288  88.7498 15.69936518 21568,6737.216,91.723,361.492,356.669,0.0
56779.0,STARLINK-6231,PAYLOAD,2023-10-14 09:39:16,15.6992945,0.0003178,70.0001,30.5679,267.8175,92.2657,1.2254e-05,1.261e-05,0.0,0 STARLINK-6231,1 56779U 23078N   23287.40227419  .00001261  00000-0  12254-4 0  9993,2 56779  70.0001  30.5679 0003178 267.8175  92.2657 15.69929450 21676,6737.236,91.724,361.242,356.96,0.0
56779.0,STARLINK-6231,PAYLOAD,2023-10-14 15:46:19,15.69899217,0.0002962,69.9995,29.8506,256.8291,103.2574,-1.7759e-05,-2.345e-05,0.0,0 STARLINK-6231,1 56779U 23078N   23287.65716709 -.00002345  00000-0 -17759-4 0  9996,2 56779  69.9995  29.8506 0002962 256.8291 103.2574 15.69899217 21715,6737.322,91.726,361.183,357.192,0.0
56779.0,STARLINK-6231,PAYLOAD,2023-10-15 10:07:18,15.69928109,0.0003949,69.9972,27.6993,274.7052,85.3692,1.5989e-05,1.71e-05,0.0,0 STARLINK-6231,1 56779U 23078N   23288.42174373  .00001710  00000-0  15989-4 0  9993,2 56779  69.9972  27.6993 0003949 274.7052  85.3692 15.69928109 21833,6737.24,91.724,361.765,356.444,0.0
56779.0,STARLINK-6231,PAYLOAD,2023-10-15 13:10:49,15.69916421,0.0003575,69.9973,27.341,267.6398,92.4388,2.6092e-05,2.925e-05,0.0,0 STARLINK-6231,1 56779U 23078N   23288.54918219  .00002925  00000-0  26092-4 0  9997,2 56779  69.9973  27.3410 0003575 267.6398  92.4388 15.69916421 21592,6737.273,91.725,361.547,356.73,0.0
56779.0,STARLINK-6231,PAYLOAD,2023-10-15 16:14:19,15.69925539,0.0003743,69.998,26.9829,274.5643,85.5125,1.0934e-05,1.102e-05,0.0,0 STARLINK-6231,1 56779U 23078N   23288.67661306  .00001102  00000-0  10934-4 0  9997,2 56779  69.9980  26.9829 0003743 274.5643  85.5125 15.69925539 21611,6737.247,91.724,361.634,356.59,0.0
56779.0,STARLINK-6231,PAYLOAD,2023-10-16 09:03:35,15.69926362,0.0003628,69.9978,25.012,269.3832,90.6948,-3.8852e-06,-6.8e-06,0.0,0 STARLINK-6231,1 56779U 23078N   23289.37749837 -.00000680  00000-0 -38852-5 0  9993,2 56779  69.9978  25.0120 0003628 269.3832  90.6948 15.69926362 21981,6737.245,91.724,361.554,356.665,0.0
56779.0,STARLINK-6231,PAYLOAD,2023-10-16 16:42:21,15.69925957,0.0003299,69.9996,24.1167,248.4199,111.6646,8.7971e-06,8.45e-06,0.0,0 STARLINK-6231,1 56779U 23078N   23289.69607854  .00000845  00000-0  87971-5 0  9997,2 56779  69.9996  24.1167 0003299 248.4199 111.6646 15.69925957 21775,6737.246,91.724,361.333,356.888,0.0
56779.0,STARLINK-6231,PAYLOAD,2023-10-17 09:31:37,15.69923379,0.0003381,69.9984,22.1469,263.1267,96.9544,1.0323e-05,1.029e-05,0.0,0 STARLINK-6231,1 56779U 23078N   23290.39696333  .00001029  00000-0  10323-4 0  9997,2 56779  69.9984  22.1469 0003381 263.1267  96.9544 15.69923379 22147,6737.253,91.724,361.396,356.84,0.0
56779.0,STARLINK-6231,PAYLOAD,2023-10-17 12:35:08,15.69919137,0.0003522,69.9983,21.7876,269.7542,90.325,-1.3315e-06,-3.73e-06,0.0,0 STARLINK-6231,1 56779U 23078N   23290.52440254 -.00000373  00000-0 -13315-5 0  9999,2 56779  69.9983  21.7876 0003522 269.7542  90.3250 15.69919137 21900,6737.265,91.724,361.503,356.757,0.0
56779.0,STARLINK-6231,PAYLOAD,2023-10-17 23:17:24,15.69915701,0.0003065,69.9987,20.534,270.1688,89.9157,2.1544e-05,2.378e-05,0.0,0 STARLINK-6231,1 56779U 23078N   23290.97041765  .00002378  00000-0  21544-4 0  9999,2 56779  69.9987  20.5340 0003065 270.1688  89.9157 15.69915701 21976,6737.275,91.725,361.205,357.075,0.0
56779.0,STARLINK-6231,PAYLOAD,2023-10-18 16:06:40,15.69920051,0.0003493,69.9965,18.5634,266.3827,93.6969,3.9784e-06,2.65e-06,0.0,0 STARLINK-6231,1 56779U 23078N   23291.67130172  .00000265  00000-0  39784-5 0  9997,2 56779  69.9965  18.5634 0003493 266.3827  93.6969 15.69920051 22341,6737.263,91.724,361.481,356.774,0.0
56779.0,STARLINK-6231,PAYLOAD,2023-10-19 08:55:57,15.69907643,0.0002997,69.9981,16.591,267.7802,92.305,-6.3787e-06,-9.79e-06,0.0,0 STARLINK-6231,1 56779U 23078N   23292.37219230 -.00000979  00000-0 -63787-5 0  9992,2 56779  69.9981  16.5910 0002997 267.7802  92.3050 15.69907643 22451,6737.298,91.725,361.182,357.144,0.0
56779.0,STARLINK-6231,PAYLOAD,2023-10-19 22:41:49,15.69822774,0.0002595,69.9982,14.98,254.9026,105.1883,-8.5475e-05,-0.00010433,0.0,0 STARLINK-6231,1 56779U 23078N   23292.94570956 -.00010433  00000-0 -85475-4 0  9993,2 56779  69.9982  14.9800 0002595 254.9026 105.1883 15.69822774 22540,6737.541,91.73,361.154,357.658,0.0
56779.0,STARLINK-6231,PAYLOAD,2023-10-20 04:48:54,15.69806069,0.0002645,69.9988,14.2641,85.9881,274.1617,-0.00011426,-0.00013859,0.0,0 STARLINK-6231,1 56779U 23078N   23293.20062590 -.00013859  00000-0 -11426-3 0  9992,2 56779  69.9988  14.2641 0002645  85.9881 274.1617 15.69806069 22584,6737.589,91.731,361.236,357.672,0.0
56779.0,STARLINK-6231,PAYLOAD,2023-10-20 13:59:14,15.69908212,0.0002965,69.9982,13.1886,262.3857,97.7002,8.3529e-06,7.91e-06,0.0,0 STARLINK-6231,1 56779U 23078N   23293.58281053  .00000791  00000-0  83529-5 0  9994,2 56779  69.9982  13.1886 0002965 262.3857  97.7002 15.69908212 22384,6737.297,91.725,361.159,357.164,0.0
56779.0,STARLINK-6231,PAYLOAD,2023-10-20 15:31:00,15.69909333,0.0002637,69.9981,13.009,242.1624,117.9305,6.892e-06,6.16e-06,0.0,0 STARLINK-6231,1 56779U 23078N   23293.64652926  .00000616  00000-0  68920-5 0  9996,2 56779  69.9981  13.0090 0002637 242.1624 117.9305 15.69909333 22659,6737.293,91.725,360.935,357.382,0.0
56779.0,STARLINK-6231,PAYLOAD,2023-10-21 11:23:45,15.699247,0.0003136,69.9969,10.6794,268.3746,91.7091,1.3054e-05,1.357e-05,0.0,0 STARLINK-6231,1 56779U 23078N   23294.47483099  .00001357  00000-0  13054-4 0  9991,2 56779  69.9969  10.6794 0003136 268.3746  91.7091 15.69924700 22789,6737.249,91.724,361.227,357.002,0.0
56779.0,STARLINK-6231,PAYLOAD,2023-10-21 22:06:01,15.69916905,0.0003696,69.9965,9.4259,270.1154,89.9618,1.5072e-05,1.599e-05,0.0,0 STARLINK-6231,1 56779U 23078N   23294.92085176  .00001599  00000-0  15072-4 0  9995,2 56779  69.9965   9.4259 0003696 270.1154  89.9618 15.69916905 22593,6737.272,91.725,361.627,356.647,0.0
56779.0,STARLINK-6231,PAYLOAD,2023-10-22 08:48:18,15.69910722,0.0003049,69.9985,8.1725,269.6837,90.4009,2.1524e-06,4.6e-07,0.0,0 STARLINK-6231,1 56779U 23078N   23295.36688035  .00000046  00000-0  21524-5 0  9993,2 56779  69.9985   8.1725 0003049 269.6837  90.4009 15.69910722 22921,6737.289,91.725,361.209,357.1,0.0
56779.0,STARLINK-6231,PAYLOAD,2023-10-22 13:23:34,15.69902319,0.0002827,69.9983,7.6348,266.7312,93.356,2.358e-07,-1.84e-06,0.0,0 STARLINK-6231,1 56779U 23078N   23295.55803792 -.00000184  00000-0  23580-6 0  9992,2 56779  69.9983   7.6348 0002827 266.7312  93.3560 15.69902319 22694,6737.313,91.725,361.083,357.274,0.0
56779.0,STARLINK-6231,PAYLOAD,2023-10-22 22:34:03,15.69936916,0.0003343,69.9983,6.56,271.9957,88.0855,8.5394e-06,8.15e-06,0.0,0 STARLINK-6231,1 56779U 23078N   23295.94031487  .00000815  00000-0  85394-5 0  9999,2 56779  69.9983   6.5600 0003343 271.9957  88.0855 15.69936916 22755,6737.214,91.723,361.332,356.827,0.0
56779.0,STARLINK-6231,PAYLOAD,2023-10-23 12:19:50,15.69921465,0.0002923,69.9986,4.9475,265.764,94.3222,-1.8538e-05,-2.44e-05,0.0,0 STARLINK-6231,1 56779U 23078N   23296.51377920 -.00002440  00000-0 -18538-4 0  9991,2 56779  69.9986   4.9475 0002923 265.7640  94.3222 15.69921465 23104,6737.259,91.724,361.093,357.154,0.0
56779.0,STARLINK-6231,PAYLOAD,2023-10-24 11:16:06,15.69928519,0.0002057,69.9993,2.2599,267.3148,92.7812,3.0287e-05,3.431e-05,0.0,0 STARLINK-6231,1 56779U 23078N   23297.46951709  .00003431  00000-0  30287-4 0  9993,2 56779  69.9993   2.2599 0002057 267.3148  92.7812 15.69928519 23259,6737.239,91.724,360.489,357.718,0.0
56779.0,STARLINK-6231,PAYLOAD,2023-10-25 13:15:54,15.69902532,0.0002414,69.999,359.2156,245.106,114.9885,1.4287e-05,1.504e-05,0.0,0 STARLINK-6231,1 56779U 23078N   23298.55271984  .00001504  00000-0  14287-4 0  9995,2 56779  69.9990 359.2156 0002414 245.1060 114.9885 15.69902532 23427,6737.313,91.725,360.804,357.551,0.0
56779.0,STARLINK-6231,PAYLOAD,2023-10-26 07:36:55,15.6991947,0.0002373,69.9988,357.0653,239.0856,121.0106,-2.0701e-06,-4.61e-06,0.0,0 STARLINK-6231,1 56779U 23078N   23299.31731131 -.00000461  00000-0 -20701-5 0  9997,2 56779  69.9988 357.0653 0002373 239.0856 121.0106 15.69919470 23548,6737.264,91.724,360.728,357.531,0.0
56779.0,STARLINK-6231,PAYLOAD,2023-10-26 13:43:56,15.69922368,0.0002828,69.9976,356.3481,262.2478,97.8396,-1.7128e-06,-4.18e-06,0.0,0 STARLINK-6231,1 56779U 23078N   23299.57217713 -.00000418  00000-0 -17128-5 0  9991,2 56779  69.9976 356.3481 0002828 262.2478  97.8396 15.69922368 23326,6737.256,91.724,361.026,357.216,0.0
56779.0,STARLINK-6231,PAYLOAD,2023-10-27 05:01:26,15.69924634,0.000317,69.9978,354.5566,263.8356,96.2479,1.2678e-05,1.312e-05,0.0,0 STARLINK-6231,1 56779U 23078N   23300.20933780  .00001312  00000-0  12678-4 0  9999,2 56779  69.9978 354.5566 0003170 263.8356  96.2479 15.69924634 23687,6737.25,91.724,361.25,356.979,0.0
56779.0,STARLINK-6231,PAYLOAD,2023-10-27 11:08:28,15.69908404,0.0003182,69.9978,353.8404,255.9753,104.1089,-1.3191e-05,-1.797e-05,0.0,0 STARLINK-6231,1 56779U 23078N   23300.46422037 -.00001797  00000-0 -13191-4 0  9995,2 56779  69.9978 353.8404 0003182 255.9753 104.1089 15.69908404 23724,6737.296,91.725,361.305,357.017,0.0
